QIANFAN-49              
1 62250U 24232P   25234.92838381  .00000066  00000+0  83678-4 0  9993
2 62250  88.9936  52.5239 0015084 151.5246 208.6733 13.50957730 52745
QIANFAN-50              
1 62251U 24232Q   25234.80506347  .00000040  00000+0  43735-4 0  9997
2 62251  88.9942  52.5385 0016682 153.8335 206.3662 13.50964291 52751
QIANFAN-51              
1 62252U 24232R   25234.86269377  .00000069  00000+0  88759-4 0  9999
2 62252  88.9936  52.5334 0014073 156.0025 204.1785 13.50959966 52757
QIANFAN-52              
1 62253U 24232S   25234.89146631  .00000055  00000+0  66712-4 0  9990
2 62253  88.9932  52.4083 0016311 149.5780 210.6321 13.50961221 52841
QIANFAN-53              
1 62254U 24232T   25234.87090879  .00000045  00000+0  51129-4 0  9996
2 62254  88.9939  52.5066 0015160 150.2211 209.9806 13.50965359 52801
QIANFAN-54              
1 62255U 24232U   25234.91206540  .00000062  00000+0  77263-4 0  9992
2 62255  88.9931  52.1905 0002419 148.2241 211.9056 13.50953498 84317
QIANFAN-55              
1 62785U 25016A   25234.93787800  .00000104  00000+0  14252-3 0  9991
2 62785  88.9817 114.7530 0016369 317.7504  42.2385 13.50967746 32090
QIANFAN-56              
1 62786U 25016B   25234.95446743  .00000120  00000+0  16764-3 0  9990
2 62786  88.9790 114.6182 0015112 320.7954  39.2101 13.50959466 32149
